[{"OBJECT_NAME":"YAOGAN-15","OBJECT_ID":"2012-029A","EPOCH":"2026-03-09T23:45:53.885664","MEAN_MOTION":13.18381612,"ECCENTRICITY":0.00255124,"INCLINATION":100.7439,"RA_OF_ASC_NODE":271.8969,"ARG_OF_PERICENTER":154.8606,"MEAN_ANOMALY":205.3754,"EPHEMERIS_TYPE":0,"CLASSIFICATION_TYPE":"U","NORAD_CAT_ID":38354,"ELEMENT_SET_NO":999,"REV_AT_EPOCH":66237,"BSTAR":0.0014389318,"MEAN_MOTION_DOT":5.19e-6,"MEAN_MOTION_DDOT":0},{"OBJECT_NAME":"ONEWEB-0180","OBJECT_ID":"2021-031D","EPOCH":"2026-03-09T16:03:43.800480","MEAN_MOTION":13.14502396,"ECCENTRICITY":0.00019597,"INCLINATION":87.8992,"RA_OF_ASC_NODE":309.5516,"ARG_OF_PERICENTER":79.6775,"MEAN_ANOMALY":280.4576,"EPHEMERIS_TYPE":0,"CLASSIFICATION_TYPE":"U","NORAD_CAT_ID":48213,"ELEMENT_SET_NO":999,"REV_AT_EPOCH":23514,"BSTAR":0.00025508975,"MEAN_MOTION_DOT":1.07e-6,"MEAN_MOTION_DDOT":0}]
